[{"OBJECT_NAME":"FLOCK 4Q-36","OBJECT_ID":"2023-174U","EPOCH":"2026-03-02T20:02:35.777184","MEAN_MOTION":15.50690459,"ECCENTRICITY":0.000765,"INCLINATION":97.3904,"RA_OF_ASC_NODE":150.9225,"ARG_OF_PERICENTER":167.7672,"MEAN_ANOMALY":192.3767,"EPHEMERIS_TYPE":0,"CLASSIFICATION_TYPE":"U","NORAD_CAT_ID":58274,"ELEMENT_SET_NO":999,"REV_AT_EPOCH":12931,"BSTAR":0.00057157,"MEAN_MOTION_DOT":0.0003285,"MEAN_MOTION_DDOT":0},{"OBJECT_NAME":"FLOCK 4Q-12","OBJECT_ID":"2023-174V","EPOCH":"2026-03-02T18:44:31.556256","MEAN_MOTION":15.50730178,"ECCENTRICITY":0.0006062,"INCLINATION":97.3899,"RA_OF_ASC_NODE":150.7499,"ARG_OF_PERICENTER":173.9595,"MEAN_ANOMALY":186.1731,"EPHEMERIS_TYPE":0,"CLASSIFICATION_TYPE":"U","NORAD_CAT_ID":58275,"ELEMENT_SET_NO":999,"REV_AT_EPOCH":12932,"BSTAR":0.0013515,"MEAN_MOTION_DOT":0.00078328,"MEAN_MOTION_DDOT":0},{"OBJECT_NAME":"FLOCK 4Q-28","OBJECT_ID":"2023-174AA","EPOCH":"2026-03-02T17:13:52.452480","MEAN_MOTION":15.48508263,"ECCENTRICITY":0.0007281,"INCLINATION":97.3925,"RA_OF_ASC_NODE":149.9347,"ARG_OF_PERICENTER":173.9095,"MEAN_ANOMALY":186.2246,"EPHEMERIS_TYPE":0,"CLASSIFICATION_TYPE":"U","NORAD_CAT_ID":58280,"ELEMENT_SET_NO":999,"REV_AT_EPOCH":12923,"BSTAR":0.00065492,"MEAN_MOTION_DOT":0.0003488,"MEAN_MOTION_DDOT":0},{"OBJECT_NAME":"FLOCK 4Q-27","OBJECT_ID":"2023-174AC","EPOCH":"2026-03-02T18:40:50.202048","MEAN_MOTION":15.48489142,"ECCENTRICITY":0.0006713,"INCLINATION":97.3867,"RA_OF_ASC_NODE":149.5418,"ARG_OF_PERICENTER":168.8852,"MEAN_ANOMALY":191.2548,"EPHEMERIS_TYPE":0,"CLASSIFICATION_TYPE":"U","NORAD_CAT_ID":58282,"ELEMENT_SET_NO":999,"REV_AT_EPOCH":12925,"BSTAR":0.00067196,"MEAN_MOTION_DOT":0.00035765,"MEAN_MOTION_DDOT":0},{"OBJECT_NAME":"FLOCK 4Q-26","OBJECT_ID":"2023-174AE","EPOCH":"2026-03-02T18:15:32.395104","MEAN_MOTION":15.50292634,"ECCENTRICITY":0.0007177,"INCLINATION":97.3919,"RA_OF_ASC_NODE":150.9342,"ARG_OF_PERICENTER":172.3071,"MEAN_ANOMALY":187.8292,"EPHEMERIS_TYPE":0,"CLASSIFICATION_TYPE":"U","NORAD_CAT_ID":58284,"ELEMENT_SET_NO":999,"REV_AT_EPOCH":12930,"BSTAR":0.00061356,"MEAN_MOTION_DOT":0.00034781,"MEAN_MOTION_DDOT":0},{"OBJECT_NAME":"FLOCK 4Q-31","OBJECT_ID":"2023-174AF","EPOCH":"2026-03-02T18:57:22.726368","MEAN_MOTION":15.4978391,"ECCENTRICITY":0.0007799,"INCLINATION":97.3962,"RA_OF_ASC_NODE":150.6068,"ARG_OF_PERICENTER":174.0423,"MEAN_ANOMALY":186.0922,"EPHEMERIS_TYPE":0,"CLASSIFICATION_TYPE":"U","NORAD_CAT_ID":58285,"ELEMENT_SET_NO":999,"REV_AT_EPOCH":12926,"BSTAR":0.0007508,"MEAN_MOTION_DOT":0.0004187,"MEAN_MOTION_DDOT":0},{"OBJECT_NAME":"FLOCK 4Q-30","OBJECT_ID":"2023-174AG","EPOCH":"2026-03-02T18:41:28.794336","MEAN_MOTION":15.50010199,"ECCENTRICITY":0.0007716,"INCLINATION":97.3963,"RA_OF_ASC_NODE":150.7749,"ARG_OF_PERICENTER":169.1863,"MEAN_ANOMALY":190.9556,"EPHEMERIS_TYPE":0,"CLASSIFICATION_TYPE":"U","NORAD_CAT_ID":58286,"ELEMENT_SET_NO":999,"REV_AT_EPOCH":12927,"BSTAR":0.00073996,"MEAN_MOTION_DOT":0.00041592,"MEAN_MOTION_DDOT":0},{"OBJECT_NAME":"PELICAN-1","OBJECT_ID":"2023-174AS","EPOCH":"2026-03-02T05:05:14.468064","MEAN_MOTION":15.63199868,"ECCENTRICITY":0.00086427,"INCLINATION":97.4024,"RA_OF_ASC_NODE":155.6119,"ARG_OF_PERICENTER":252.1042,"MEAN_ANOMALY":107.9274,"EPHEMERIS_TYPE":0,"CLASSIFICATION_TYPE":"U","NORAD_CAT_ID":58296,"ELEMENT_SET_NO":999,"REV_AT_EPOCH":12939,"BSTAR":0.00046185875,"MEAN_MOTION_DOT":0.00042297,"MEAN_MOTION_DDOT":0},{"OBJECT_NAME":"FLOCK 4Q-25","OBJECT_ID":"2023-174AZ","EPOCH":"2026-03-02T18:41:21.467616","MEAN_MOTION":15.55758497,"ECCENTRICITY":0.0005367,"INCLINATION":97.388,"RA_OF_ASC_NODE":151.6053,"ARG_OF_PERICENTER":156.4156,"MEAN_ANOMALY":203.7345,"EPHEMERIS_TYPE":0,"CLASSIFICATION_TYPE":"U","NORAD_CAT_ID":58303,"ELEMENT_SET_NO":999,"REV_AT_EPOCH":12939,"BSTAR":0.00082317,"MEAN_MOTION_DOT":0.00056986,"MEAN_MOTION_DDOT":0},{"OBJECT_NAME":"FLOCK 4Q-29","OBJECT_ID":"2023-174BA","EPOCH":"2026-03-02T19:16:39.816768","MEAN_MOTION":15.48977735,"ECCENTRICITY":0.0007963,"INCLINATION":97.395,"RA_OF_ASC_NODE":150.4057,"ARG_OF_PERICENTER":162.0265,"MEAN_ANOMALY":198.1268,"EPHEMERIS_TYPE":0,"CLASSIFICATION_TYPE":"U","NORAD_CAT_ID":58304,"ELEMENT_SET_NO":999,"REV_AT_EPOCH":12925,"BSTAR":0.00069514,"MEAN_MOTION_DOT":0.0003766,"MEAN_MOTION_DDOT":0},{"OBJECT_NAME":"FLOCK 4Q-22","OBJECT_ID":"2023-174BC","EPOCH":"2026-03-02T18:36:02.631744","MEAN_MOTION":15.51515602,"ECCENTRICITY":0.000683,"INCLINATION":97.3866,"RA_OF_ASC_NODE":150.5399,"ARG_OF_PERICENTER":165.1619,"MEAN_ANOMALY":194.9835,"EPHEMERIS_TYPE":0,"CLASSIFICATION_TYPE":"U","NORAD_CAT_ID":58306,"ELEMENT_SET_NO":999,"REV_AT_EPOCH":12932,"BSTAR":0.00069704,"MEAN_MOTION_DOT":0.00041308,"MEAN_MOTION_DDOT":0},{"OBJECT_NAME":"FLOCK 4Q-23","OBJECT_ID":"2023-174BD","EPOCH":"2026-03-02T19:26:39.470784","MEAN_MOTION":15.54577343,"ECCENTRICITY":0.0007074,"INCLINATION":97.3974,"RA_OF_ASC_NODE":152.0957,"ARG_OF_PERICENTER":162.4707,"MEAN_ANOMALY":197.6793,"EPHEMERIS_TYPE":0,"CLASSIFICATION_TYPE":"U","NORAD_CAT_ID":58307,"ELEMENT_SET_NO":999,"REV_AT_EPOCH":12936,"BSTAR":0.00077344,"MEAN_MOTION_DOT":0.00051259,"MEAN_MOTION_DDOT":0},{"OBJECT_NAME":"FLOCK 4Q-33","OBJECT_ID":"2023-174BE","EPOCH":"2026-03-02T19:43:27.038208","MEAN_MOTION":15.50639368,"ECCENTRICITY":0.0007483,"INCLINATION":97.3892,"RA_OF_ASC_NODE":150.5304,"ARG_OF_PERICENTER":156.0212,"MEAN_ANOMALY":204.1389,"EPHEMERIS_TYPE":0,"CLASSIFICATION_TYPE":"U","NORAD_CAT_ID":58308,"ELEMENT_SET_NO":999,"REV_AT_EPOCH":12931,"BSTAR":0.00056362,"MEAN_MOTION_DOT":0.00032329,"MEAN_MOTION_DDOT":0},{"OBJECT_NAME":"FLOCK 4Q-35","OBJECT_ID":"2023-174BF","EPOCH":"2026-03-02T19:18:00.289728","MEAN_MOTION":15.49620458,"ECCENTRICITY":0.0008283,"INCLINATION":97.3914,"RA_OF_ASC_NODE":150.6866,"ARG_OF_PERICENTER":168.9017,"MEAN_ANOMALY":191.2419,"EPHEMERIS_TYPE":0,"CLASSIFICATION_TYPE":"U","NORAD_CAT_ID":58309,"ELEMENT_SET_NO":999,"REV_AT_EPOCH":12929,"BSTAR":0.0006317,"MEAN_MOTION_DOT":0.00034987,"MEAN_MOTION_DDOT":0},{"OBJECT_NAME":"FLOCK 4Q-34","OBJECT_ID":"2023-174BN","EPOCH":"2026-03-02T18:11:11.670144","MEAN_MOTION":15.54752135,"ECCENTRICITY":0.0006895,"INCLINATION":97.3869,"RA_OF_ASC_NODE":151.4477,"ARG_OF_PERICENTER":163.4579,"MEAN_ANOMALY":196.6901,"EPHEMERIS_TYPE":0,"CLASSIFICATION_TYPE":"U","NORAD_CAT_ID":58316,"ELEMENT_SET_NO":999,"REV_AT_EPOCH":12936,"BSTAR":0.00077439,"MEAN_MOTION_DOT":0.0005165,"MEAN_MOTION_DDOT":0},{"OBJECT_NAME":"FLOCK 4Q-7","OBJECT_ID":"2023-174BQ","EPOCH":"2026-03-02T20:03:40.957344","MEAN_MOTION":15.48652313,"ECCENTRICITY":0.0008179,"INCLINATION":97.3947,"RA_OF_ASC_NODE":150.251,"ARG_OF_PERICENTER":160.3978,"MEAN_ANOMALY":199.7588,"EPHEMERIS_TYPE":0,"CLASSIFICATION_TYPE":"U","NORAD_CAT_ID":58318,"ELEMENT_SET_NO":999,"REV_AT_EPOCH":12925,"BSTAR":0.00068143,"MEAN_MOTION_DOT":0.00036496,"MEAN_MOTION_DDOT":0}]
